[{"OBJECT_NAME":"STARLINK-4771","OBJECT_ID":"2022-114R","EPOCH":"2026-03-09T21:24:12.536064","MEAN_MOTION":15.08838881,"ECCENTRICITY":0.00012757,"INCLINATION":53.217,"RA_OF_ASC_NODE":303.0914,"ARG_OF_PERICENTER":98.808,"MEAN_ANOMALY":261.3056,"EPHEMERIS_TYPE":0,"CLASSIFICATION_TYPE":"U","NORAD_CAT_ID":53833,"ELEMENT_SET_NO":999,"REV_AT_EPOCH":19286,"BSTAR":-3.6486548e-5,"MEAN_MOTION_DOT":-8.68e-6,"MEAN_MOTION_DDOT":0},{"OBJECT_NAME":"SL-18 R\/B","OBJECT_ID":"2001-007B","EPOCH":"2026-03-09T23:25:11.323200","MEAN_MOTION":15.07301441,"ECCENTRICITY":0.00085554,"INCLINATION":97.6926,"RA_OF_ASC_NODE":87.6817,"ARG_OF_PERICENTER":353.225,"MEAN_ANOMALY":6.886,"EPHEMERIS_TYPE":0,"CLASSIFICATION_TYPE":"U","NORAD_CAT_ID":26703,"ELEMENT_SET_NO":999,"REV_AT_EPOCH":64619,"BSTAR":0.00021543689,"MEAN_MOTION_DOT":3.19e-5,"MEAN_MOTION_DDOT":0}]
